{"fetched_at":"2026-07-16T06:42:35.236Z","source":"https://celestrak.org/NORAD/elements/gp.php?GROUP=planet&FORMAT=JSON","constellation":"superdove","records":[{"OBJECT_NAME":"FLOCK 4G-23","OBJECT_ID":"2025-009AQ","EPOCH":"2026-07-15T17:59:34.203552","CLASSIFICATION_TYPE":"U","MEAN_MOTION":15.34794139,"ECCENTRICITY":0.00032555,"INCLINATION":97.3929,"RA_OF_ASC_NODE":278.4401,"ARG_OF_PERICENTER":171.1926,"MEAN_ANOMALY":188.9375,"EPHEMERIS_TYPE":0,"NORAD_CAT_ID":62647,"ELEMENT_SET_NO":999,"REV_AT_EPOCH":8330,"BSTAR":0.00071521009,"MEAN_MOTION_DOT":0.00024096,"MEAN_MOTION_DDOT":0},{"OBJECT_NAME":"FLOCK 4G-34","OBJECT_ID":"2025-009AT","EPOCH":"2026-07-15T18:43:36.447744","CLASSIFICATION_TYPE":"U","MEAN_MOTION":15.29782334,"ECCENTRICITY":0.00024037,"INCLINATION":97.3963,"RA_OF_ASC_NODE":278.2273,"ARG_OF_PERICENTER":160.8175,"MEAN_ANOMALY":199.3156,"EPHEMERIS_TYPE":0,"NORAD_CAT_ID":62650,"ELEMENT_SET_NO":999,"REV_AT_EPOCH":8328,"BSTAR":0.0002125094,"MEAN_MOTION_DOT":0.00006054,"MEAN_MOTION_DDOT":0},{"OBJECT_NAME":"FLOCK 4G-21","OBJECT_ID":"2025-009AU","EPOCH":"2026-07-15T18:19:26.177088","CLASSIFICATION_TYPE":"U","MEAN_MOTION":15.32894933,"ECCENTRICITY":0.00033325,"INCLINATION":97.3994,"RA_OF_ASC_NODE":279.216,"ARG_OF_PERICENTER":188.3603,"MEAN_ANOMALY":171.7585,"EPHEMERIS_TYPE":0,"NORAD_CAT_ID":62651,"ELEMENT_SET_NO":999,"REV_AT_EPOCH":8333,"BSTAR":0.0006704677,"MEAN_MOTION_DOT":0.00021262,"MEAN_MOTION_DDOT":0},{"OBJECT_NAME":"FLOCK 4G-31","OBJECT_ID":"2025-009AV","EPOCH":"2026-07-15T19:26:46.430304","CLASSIFICATION_TYPE":"U","MEAN_MOTION":15.29587657,"ECCENTRICITY":0.00019286,"INCLINATION":97.3969,"RA_OF_ASC_NODE":278.2289,"ARG_OF_PERICENTER":156.8393,"MEAN_ANOMALY":203.2934,"EPHEMERIS_TYPE":0,"NORAD_CAT_ID":62652,"ELEMENT_SET_NO":999,"REV_AT_EPOCH":8328,"BSTAR":0.00020221365,"MEAN_MOTION_DOT":0.00005722,"MEAN_MOTION_DDOT":0},{"OBJECT_NAME":"FLOCK 4G-4","OBJECT_ID":"2025-009BC","EPOCH":"2026-07-15T04:39:14.218848","CLASSIFICATION_TYPE":"U","MEAN_MOTION":15.32145933,"ECCENTRICITY":0.00046875,"INCLINATION":97.3949,"RA_OF_ASC_NODE":277.4279,"ARG_OF_PERICENTER":192.88,"MEAN_ANOMALY":167.2323,"EPHEMERIS_TYPE":0,"NORAD_CAT_ID":62659,"ELEMENT_SET_NO":999,"REV_AT_EPOCH":14079,"BSTAR":0.0006550824,"MEAN_MOTION_DOT":0.00020291,"MEAN_MOTION_DDOT":0},{"OBJECT_NAME":"FLOCK 4G-6","OBJECT_ID":"2025-009BD","EPOCH":"2026-07-15T19:10:57.031680","CLASSIFICATION_TYPE":"U","MEAN_MOTION":15.29983607,"ECCENTRICITY":0.00029295,"INCLINATION":97.3941,"RA_OF_ASC_NODE":278.07,"ARG_OF_PERICENTER":198.3878,"MEAN_ANOMALY":161.7257,"EPHEMERIS_TYPE":0,"NORAD_CAT_ID":62660,"ELEMENT_SET_NO":999,"REV_AT_EPOCH":14087,"BSTAR":0.00017736736,"MEAN_MOTION_DOT":0.00005072,"MEAN_MOTION_DDOT":0},{"OBJECT_NAME":"FLOCK 4G-2","OBJECT_ID":"2025-009BE","EPOCH":"2026-07-15T19:01:32.016288","CLASSIFICATION_TYPE":"U","MEAN_MOTION":15.30336047,"ECCENTRICITY":0.00037967,"INCLINATION":97.401,"RA_OF_ASC_NODE":278.7062,"ARG_OF_PERICENTER":199.1095,"MEAN_ANOMALY":161.0004,"EPHEMERIS_TYPE":0,"NORAD_CAT_ID":62661,"ELEMENT_SET_NO":999,"REV_AT_EPOCH":14090,"BSTAR":0.00021216133,"MEAN_MOTION_DOT":0.00006149,"MEAN_MOTION_DDOT":0},{"OBJECT_NAME":"FLOCK 4G-5","OBJECT_ID":"2025-009BG","EPOCH":"2026-07-15T18:53:53.056896","CLASSIFICATION_TYPE":"U","MEAN_MOTION":15.30912794,"ECCENTRICITY":0.00035482,"INCLINATION":97.4027,"RA_OF_ASC_NODE":279.1017,"ARG_OF_PERICENTER":179.6238,"MEAN_ANOMALY":180.5007,"EPHEMERIS_TYPE":0,"NORAD_CAT_ID":62663,"ELEMENT_SET_NO":999,"REV_AT_EPOCH":8331,"BSTAR":0.00018624349,"MEAN_MOTION_DOT":0.00005486,"MEAN_MOTION_DDOT":0},{"OBJECT_NAME":"FLOCK 4G-1","OBJECT_ID":"2025-009BK","EPOCH":"2026-07-15T18:39:51.207264","CLASSIFICATION_TYPE":"U","MEAN_MOTION":15.30195779,"ECCENTRICITY":0.00040651,"INCLINATION":97.4023,"RA_OF_ASC_NODE":278.6704,"ARG_OF_PERICENTER":196.5571,"MEAN_ANOMALY":163.5537,"EPHEMERIS_TYPE":0,"NORAD_CAT_ID":62666,"ELEMENT_SET_NO":999,"REV_AT_EPOCH":8328,"BSTAR":0.00021519236,"MEAN_MOTION_DOT":0.00006211,"MEAN_MOTION_DDOT":0},{"OBJECT_NAME":"FLOCK 4G-14","OBJECT_ID":"2025-009BL","EPOCH":"2026-07-15T19:24:53.702496","CLASSIFICATION_TYPE":"U","MEAN_MOTION":15.29742603,"ECCENTRICITY":0.00042459,"INCLINATION":97.4025,"RA_OF_ASC_NODE":278.4976,"ARG_OF_PERICENTER":191.738,"MEAN_ANOMALY":168.3762,"EPHEMERIS_TYPE":0,"NORAD_CAT_ID":62667,"ELEMENT_SET_NO":999,"REV_AT_EPOCH":8327,"BSTAR":0.00020522008,"MEAN_MOTION_DOT":0.00005837,"MEAN_MOTION_DDOT":0},{"OBJECT_NAME":"FLOCK 4G-10","OBJECT_ID":"2025-009BP","EPOCH":"2026-07-15T03:58:40.174464","CLASSIFICATION_TYPE":"U","MEAN_MOTION":15.29838382,"ECCENTRICITY":0.00036865,"INCLINATION":97.3925,"RA_OF_ASC_NODE":277.1546,"ARG_OF_PERICENTER":213.0825,"MEAN_ANOMALY":147.0186,"EPHEMERIS_TYPE":0,"NORAD_CAT_ID":62670,"ELEMENT_SET_NO":999,"REV_AT_EPOCH":14081,"BSTAR":0.00022662281,"MEAN_MOTION_DOT":0.00006473,"MEAN_MOTION_DDOT":0},{"OBJECT_NAME":"FLOCK 4G-36","OBJECT_ID":"2025-009BU","EPOCH":"2026-07-15T17:58:29.739648","CLASSIFICATION_TYPE":"U","MEAN_MOTION":15.29818566,"ECCENTRICITY":0.00043927,"INCLINATION":97.4013,"RA_OF_ASC_NODE":278.3595,"ARG_OF_PERICENTER":197.9122,"MEAN_ANOMALY":162.1965,"EPHEMERIS_TYPE":0,"NORAD_CAT_ID":62675,"ELEMENT_SET_NO":999,"REV_AT_EPOCH":8326,"BSTAR":0.00022102636,"MEAN_MOTION_DOT":0.00006308,"MEAN_MOTION_DDOT":0},{"OBJECT_NAME":"FLOCK 4G-15","OBJECT_ID":"2025-009BX","EPOCH":"2026-07-15T18:08:25.930752","CLASSIFICATION_TYPE":"U","MEAN_MOTION":15.29909889,"ECCENTRICITY":0.00046242,"INCLINATION":97.4016,"RA_OF_ASC_NODE":278.5092,"ARG_OF_PERICENTER":195.0717,"MEAN_ANOMALY":165.0387,"EPHEMERIS_TYPE":0,"NORAD_CAT_ID":62678,"ELEMENT_SET_NO":999,"REV_AT_EPOCH":14091,"BSTAR":0.00023855805,"MEAN_MOTION_DOT":0.00006834,"MEAN_MOTION_DDOT":0},{"OBJECT_NAME":"FLOCK 4G-30","OBJECT_ID":"2025-009BY","EPOCH":"2026-07-15T18:18:40.437792","CLASSIFICATION_TYPE":"U","MEAN_MOTION":15.33977848,"ECCENTRICITY":0.00044492,"INCLINATION":97.392,"RA_OF_ASC_NODE":278.0412,"ARG_OF_PERICENTER":194.228,"MEAN_ANOMALY":165.8838,"EPHEMERIS_TYPE":0,"NORAD_CAT_ID":62679,"ELEMENT_SET_NO":999,"REV_AT_EPOCH":14092,"BSTAR":0.00071259882,"MEAN_MOTION_DOT":0.00023396,"MEAN_MOTION_DDOT":0},{"OBJECT_NAME":"FLOCK 4G-18","OBJECT_ID":"2025-009BZ","EPOCH":"2026-07-15T18:40:19.587072","CLASSIFICATION_TYPE":"U","MEAN_MOTION":15.32228613,"ECCENTRICITY":0.00062516,"INCLINATION":97.4012,"RA_OF_ASC_NODE":278.4511,"ARG_OF_PERICENTER":208.5586,"MEAN_ANOMALY":151.5314,"EPHEMERIS_TYPE":0,"NORAD_CAT_ID":62680,"ELEMENT_SET_NO":999,"REV_AT_EPOCH":14091,"BSTAR":0.00066470054,"MEAN_MOTION_DOT":0.00020649,"MEAN_MOTION_DDOT":0},{"OBJECT_NAME":"FLOCK 4G-17","OBJECT_ID":"2025-009CA","EPOCH":"2026-07-15T18:46:20.017632","CLASSIFICATION_TYPE":"U","MEAN_MOTION":15.30091466,"ECCENTRICITY":0.00041554,"INCLINATION":97.3922,"RA_OF_ASC_NODE":278.0056,"ARG_OF_PERICENTER":210.8797,"MEAN_ANOMALY":149.22,"EPHEMERIS_TYPE":0,"NORAD_CAT_ID":62681,"ELEMENT_SET_NO":999,"REV_AT_EPOCH":14092,"BSTAR":0.00022395223,"MEAN_MOTION_DOT":0.00006447,"MEAN_MOTION_DDOT":0}]}
