FLOCK 4G-23             
1 62647U 25009AQ  26196.74970143  .00024096  00000+0  71521-3 0  9999
2 62647  97.3929 278.4401 0003255 171.1926 188.9375 15.34794139 83305
FLOCK 4G-34             
1 62650U 25009AT  26196.78028296  .00006054  00000+0  21251-3 0  9999
2 62650  97.3963 278.2273 0002403 160.8175 199.3156 15.29782334 83285
FLOCK 4G-21             
1 62651U 25009AU  26196.76349742  .00021262  00000+0  67047-3 0  9991
2 62651  97.3994 279.2160 0003332 188.3603 171.7585 15.32894933 83338
FLOCK 4G-31             
1 62652U 25009AV  26196.81025961  .00005722  00000+0  20221-3 0  9998
2 62652  97.3969 278.2289 0001928 156.8393 203.2934 15.29587657 83288
FLOCK 4G-4              
1 62659U 25009BC  26196.19391457  .00020291  00000+0  65508-3 0  9997
2 62659  97.3949 277.4279 0004687 192.8800 167.2323 15.32145933140793
FLOCK 4G-6              
1 62660U 25009BD  26196.79927120  .00005072  00000+0  17737-3 0  9998
2 62660  97.3941 278.0700 0002929 198.3878 161.7257 15.29983607140874
FLOCK 4G-2              
1 62661U 25009BE  26196.79273167  .00006149  00000+0  21216-3 0  9997
2 62661  97.4010 278.7062 0003796 199.1095 161.0004 15.30336047140903
FLOCK 4G-5              
1 62663U 25009BG  26196.78741964  .00005486  00000+0  18624-3 0  9995
2 62663  97.4027 279.1017 0003548 179.6238 180.5007 15.30912794 83314
FLOCK 4G-1              
1 62666U 25009BK  26196.77767601  .00006211  00000+0  21519-3 0  9997
2 62666  97.4023 278.6704 0004065 196.5571 163.5537 15.30195779 83284
FLOCK 4G-14             
1 62667U 25009BL  26196.80895489  .00005837  00000+0  20522-3 0  9994
2 62667  97.4025 278.4976 0004245 191.7380 168.3762 15.29742603 83275
FLOCK 4G-10             
1 62670U 25009BP  26196.16574276  .00006473  00000+0  22662-3 0  9999
2 62670  97.3925 277.1546 0003686 213.0825 147.0186 15.29838382140814
FLOCK 4G-36             
1 62675U 25009BU  26196.74895532  .00006308  00000+0  22103-3 0  9996
2 62675  97.4013 278.3595 0004392 197.9122 162.1965 15.29818566 83260
FLOCK 4G-15             
1 62678U 25009BX  26196.75585568  .00006834  00000+0  23856-3 0  9995
2 62678  97.4016 278.5092 0004624 195.0717 165.0387 15.29909889140912
FLOCK 4G-30             
1 62679U 25009BY  26196.76296803  .00023396  00000+0  71260-3 0  9992
2 62679  97.3920 278.0412 0004449 194.2280 165.8838 15.33977848140923
FLOCK 4G-18             
1 62680U 25009BZ  26196.77800448  .00020649  00000+0  66470-3 0  9996
2 62680  97.4012 278.4511 0006251 208.5586 151.5314 15.32228613140911
FLOCK 4G-17             
1 62681U 25009CA  26196.78217613  .00006447  00000+0  22395-3 0  9992
2 62681  97.3922 278.0056 0004155 210.8797 149.2200 15.30091466140923
